<?xml version="1.0" encoding="UTF-8"?>
<ndm xmlns:xsi="http://www.w3.org/2001/XMLSchema-instance" xsi:noNamespaceSchemaLocation="https://sanaregistry.org/r/ndmxml_unqualified/ndmxml-2.0.0-master-2.0.xsd">
<omm id="CCSDS_OMM_VERS" version="2.0">
<header><CREATION_DATE/><ORIGINATOR/></header><body><segment><metadata><OBJECT_NAME>KUIPER-00071</OBJECT_NAME><OBJECT_ID>2025-151C</OBJECT_ID><CENTER_NAME>EARTH</CENTER_NAME><REF_FRAME>TEME</REF_FRAME><TIME_SYSTEM>UTC</TIME_SYSTEM><MEAN_ELEMENT_THEORY>SGP4</MEAN_ELEMENT_THEORY></metadata><data><meanElements><EPOCH>2025-09-09T22:00:01.999584</EPOCH><MEAN_MOTION>15.03319766</MEAN_MOTION><ECCENTRICITY>.00071174</ECCENTRICITY><INCLINATION>51.9017</INCLINATION><RA_OF_ASC_NODE>23.5625</RA_OF_ASC_NODE><ARG_OF_PERICENTER>344.7677</ARG_OF_PERICENTER><MEAN_ANOMALY>46.7636</MEAN_ANOMALY></meanElements><tleParameters><EPHEMERIS_TYPE>0</EPHEMERIS_TYPE><CLASSIFICATION_TYPE>U</CLASSIFICATION_TYPE><NORAD_CAT_ID>64818</NORAD_CAT_ID><ELEMENT_SET_NO>999</ELEMENT_SET_NO><REV_AT_EPOCH>463</REV_AT_EPOCH><BSTAR>-.78789019E-1</BSTAR><MEAN_MOTION_DOT>-.1005916E-1</MEAN_MOTION_DOT><MEAN_MOTION_DDOT>0</MEAN_MOTION_DDOT></tleParameters></data></segment></body></omm>
<omm id="CCSDS_OMM_VERS" version="2.0">
<header><CREATION_DATE/><ORIGINATOR/></header><body><segment><metadata><OBJECT_NAME>KUIPER-00072</OBJECT_NAME><OBJECT_ID>2025-151D</OBJECT_ID><CENTER_NAME>EARTH</CENTER_NAME><REF_FRAME>TEME</REF_FRAME><TIME_SYSTEM>UTC</TIME_SYSTEM><MEAN_ELEMENT_THEORY>SGP4</MEAN_ELEMENT_THEORY></metadata><data><meanElements><EPOCH>2025-09-09T13:55:54.909696</EPOCH><MEAN_MOTION>15.36655119</MEAN_MOTION><ECCENTRICITY>.00063333</ECCENTRICITY><INCLINATION>51.8785</INCLINATION><RA_OF_ASC_NODE>20.8392</RA_OF_ASC_NODE><ARG_OF_PERICENTER>350.6414</ARG_OF_PERICENTER><MEAN_ANOMALY>9.4454</MEAN_ANOMALY></meanElements><tleParameters><EPHEMERIS_TYPE>0</EPHEMERIS_TYPE><CLASSIFICATION_TYPE>U</CLASSIFICATION_TYPE><NORAD_CAT_ID>64819</NORAD_CAT_ID><ELEMENT_SET_NO>999</ELEMENT_SET_NO><REV_AT_EPOCH>849</REV_AT_EPOCH><BSTAR>.5676298E-3</BSTAR><MEAN_MOTION_DOT>.20311E-3</MEAN_MOTION_DOT><MEAN_MOTION_DDOT>0</MEAN_MOTION_DDOT></tleParameters></data></segment></body></omm>
<omm id="CCSDS_OMM_VERS" version="2.0">
<header><CREATION_DATE/><ORIGINATOR/></header><body><segment><metadata><OBJECT_NAME>KUIPER-00073</OBJECT_NAME><OBJECT_ID>2025-151E</OBJECT_ID><CENTER_NAME>EARTH</CENTER_NAME><REF_FRAME>TEME</REF_FRAME><TIME_SYSTEM>UTC</TIME_SYSTEM><MEAN_ELEMENT_THEORY>SGP4</MEAN_ELEMENT_THEORY></metadata><data><meanElements><EPOCH>2025-09-09T22:00:01.999584</EPOCH><MEAN_MOTION>15.04766101</MEAN_MOTION><ECCENTRICITY>.00118334</ECCENTRICITY><INCLINATION>51.9144</INCLINATION><RA_OF_ASC_NODE>23.5811</RA_OF_ASC_NODE><ARG_OF_PERICENTER>11.4536</ARG_OF_PERICENTER><MEAN_ANOMALY>115.5226</MEAN_ANOMALY></meanElements><tleParameters><EPHEMERIS_TYPE>0</EPHEMERIS_TYPE><CLASSIFICATION_TYPE>U</CLASSIFICATION_TYPE><NORAD_CAT_ID>64820</NORAD_CAT_ID><ELEMENT_SET_NO>999</ELEMENT_SET_NO><REV_AT_EPOCH>586</REV_AT_EPOCH><BSTAR>-.27197877E-1</BSTAR><MEAN_MOTION_DOT>-.369484E-2</MEAN_MOTION_DOT><MEAN_MOTION_DDOT>0</MEAN_MOTION_DDOT></tleParameters></data></segment></body></omm>
<omm id="CCSDS_OMM_VERS" version="2.0">
<header><CREATION_DATE/><ORIGINATOR/></header><body><segment><metadata><OBJECT_NAME>KUIPER-00074</OBJECT_NAME><OBJECT_ID>2025-151F</OBJECT_ID><CENTER_NAME>EARTH</CENTER_NAME><REF_FRAME>TEME</REF_FRAME><TIME_SYSTEM>UTC</TIME_SYSTEM><MEAN_ELEMENT_THEORY>SGP4</MEAN_ELEMENT_THEORY></metadata><data><meanElements><EPOCH>2025-09-09T22:00:01.999584</EPOCH><MEAN_MOTION>15.33986764</MEAN_MOTION><ECCENTRICITY>.00075135</ECCENTRICITY><INCLINATION>51.8793</INCLINATION><RA_OF_ASC_NODE>19.2429</RA_OF_ASC_NODE><ARG_OF_PERICENTER>349.6739</ARG_OF_PERICENTER><MEAN_ANOMALY>53.7700</MEAN_ANOMALY></meanElements><tleParameters><EPHEMERIS_TYPE>0</EPHEMERIS_TYPE><CLASSIFICATION_TYPE>U</CLASSIFICATION_TYPE><NORAD_CAT_ID>64821</NORAD_CAT_ID><ELEMENT_SET_NO>999</ELEMENT_SET_NO><REV_AT_EPOCH>563</REV_AT_EPOCH><BSTAR>-.2327691E-1</BSTAR><MEAN_MOTION_DOT>-.71863E-2</MEAN_MOTION_DOT><MEAN_MOTION_DDOT>0</MEAN_MOTION_DDOT></tleParameters></data></segment></body></omm>
<omm id="CCSDS_OMM_VERS" version="2.0">
<header><CREATION_DATE/><ORIGINATOR/></header><body><segment><metadata><OBJECT_NAME>KUIPER-00075</OBJECT_NAME><OBJECT_ID>2025-151G</OBJECT_ID><CENTER_NAME>EARTH</CENTER_NAME><REF_FRAME>TEME</REF_FRAME><TIME_SYSTEM>UTC</TIME_SYSTEM><MEAN_ELEMENT_THEORY>SGP4</MEAN_ELEMENT_THEORY></metadata><data><meanElements><EPOCH>2025-09-09T14:59:08.801952</EPOCH><MEAN_MOTION>15.37421343</MEAN_MOTION><ECCENTRICITY>.00052536</ECCENTRICITY><INCLINATION>51.8788</INCLINATION><RA_OF_ASC_NODE>20.4016</RA_OF_ASC_NODE><ARG_OF_PERICENTER>337.3891</ARG_OF_PERICENTER><MEAN_ANOMALY>22.6864</MEAN_ANOMALY></meanElements><tleParameters><EPHEMERIS_TYPE>0</EPHEMERIS_TYPE><CLASSIFICATION_TYPE>U</CLASSIFICATION_TYPE><NORAD_CAT_ID>64822</NORAD_CAT_ID><ELEMENT_SET_NO>999</ELEMENT_SET_NO><REV_AT_EPOCH>850</REV_AT_EPOCH><BSTAR>.85400152E-3</BSTAR><MEAN_MOTION_DOT>.31575E-3</MEAN_MOTION_DOT><MEAN_MOTION_DDOT>0</MEAN_MOTION_DDOT></tleParameters></data></segment></body></omm>
<omm id="CCSDS_OMM_VERS" version="2.0">
<header><CREATION_DATE/><ORIGINATOR/></header><body><segment><metadata><OBJECT_NAME>KUIPER-00076</OBJECT_NAME><OBJECT_ID>2025-151H</OBJECT_ID><CENTER_NAME>EARTH</CENTER_NAME><REF_FRAME>TEME</REF_FRAME><TIME_SYSTEM>UTC</TIME_SYSTEM><MEAN_ELEMENT_THEORY>SGP4</MEAN_ELEMENT_THEORY></metadata><data><meanElements><EPOCH>2025-09-09T22:00:01.999584</EPOCH><MEAN_MOTION>15.29519431</MEAN_MOTION><ECCENTRICITY>.00073544</ECCENTRICITY><INCLINATION>51.8821</INCLINATION><RA_OF_ASC_NODE>19.5334</RA_OF_ASC_NODE><ARG_OF_PERICENTER>342.5643</ARG_OF_PERICENTER><MEAN_ANOMALY>293.7595</MEAN_ANOMALY></meanElements><tleParameters><EPHEMERIS_TYPE>0</EPHEMERIS_TYPE><CLASSIFICATION_TYPE>U</CLASSIFICATION_TYPE><NORAD_CAT_ID>64823</NORAD_CAT_ID><ELEMENT_SET_NO>999</ELEMENT_SET_NO><REV_AT_EPOCH>542</REV_AT_EPOCH><BSTAR>-.24046439E-1</BSTAR><MEAN_MOTION_DOT>-.649995E-2</MEAN_MOTION_DOT><MEAN_MOTION_DDOT>0</MEAN_MOTION_DDOT></tleParameters></data></segment></body></omm>
<omm id="CCSDS_OMM_VERS" version="2.0">
<header><CREATION_DATE/><ORIGINATOR/></header><body><segment><metadata><OBJECT_NAME>KUIPER-00077</OBJECT_NAME><OBJECT_ID>2025-151J</OBJECT_ID><CENTER_NAME>EARTH</CENTER_NAME><REF_FRAME>TEME</REF_FRAME><TIME_SYSTEM>UTC</TIME_SYSTEM><MEAN_ELEMENT_THEORY>SGP4</MEAN_ELEMENT_THEORY></metadata><data><meanElements><EPOCH>2025-09-09T22:00:01.999584</EPOCH><MEAN_MOTION>15.18536251</MEAN_MOTION><ECCENTRICITY>.00049863</ECCENTRICITY><INCLINATION>51.8962</INCLINATION><RA_OF_ASC_NODE>20.9079</RA_OF_ASC_NODE><ARG_OF_PERICENTER>337.9167</ARG_OF_PERICENTER><MEAN_ANOMALY>5.3689</MEAN_ANOMALY></meanElements><tleParameters><EPHEMERIS_TYPE>0</EPHEMERIS_TYPE><CLASSIFICATION_TYPE>U</CLASSIFICATION_TYPE><NORAD_CAT_ID>64824</NORAD_CAT_ID><ELEMENT_SET_NO>999</ELEMENT_SET_NO><REV_AT_EPOCH>575</REV_AT_EPOCH><BSTAR>-.39058713E-1</BSTAR><MEAN_MOTION_DOT>-.75917E-2</MEAN_MOTION_DOT><MEAN_MOTION_DDOT>0</MEAN_MOTION_DDOT></tleParameters></data></segment></body></omm>
<omm id="CCSDS_OMM_VERS" version="2.0">
<header><CREATION_DATE/><ORIGINATOR/></header><body><segment><metadata><OBJECT_NAME>KUIPER-00078</OBJECT_NAME><OBJECT_ID>2025-151K</OBJECT_ID><CENTER_NAME>EARTH</CENTER_NAME><REF_FRAME>TEME</REF_FRAME><TIME_SYSTEM>UTC</TIME_SYSTEM><MEAN_ELEMENT_THEORY>SGP4</MEAN_ELEMENT_THEORY></metadata><data><meanElements><EPOCH>2025-09-09T22:00:01.999584</EPOCH><MEAN_MOTION>15.23792048</MEAN_MOTION><ECCENTRICITY>.00082637</ECCENTRICITY><INCLINATION>51.8833</INCLINATION><RA_OF_ASC_NODE>20.1117</RA_OF_ASC_NODE><ARG_OF_PERICENTER>20.4714</ARG_OF_PERICENTER><MEAN_ANOMALY>342.1537</MEAN_ANOMALY></meanElements><tleParameters><EPHEMERIS_TYPE>0</EPHEMERIS_TYPE><CLASSIFICATION_TYPE>U</CLASSIFICATION_TYPE><NORAD_CAT_ID>64825</NORAD_CAT_ID><ELEMENT_SET_NO>999</ELEMENT_SET_NO><REV_AT_EPOCH>421</REV_AT_EPOCH><BSTAR>-.34712795E-1</BSTAR><MEAN_MOTION_DOT>-.786579E-2</MEAN_MOTION_DOT><MEAN_MOTION_DDOT>0</MEAN_MOTION_DDOT></tleParameters></data></segment></body></omm>

</ndm>
