KUIPER-00071            
1 64818U 25151C   25252.91668981 -.01005916  00000+0 -78789-1 0  9998
2 64818  51.9017  23.5625 0007117 344.7677  46.7636 15.03319766  4635
KUIPER-00072            
1 64819U 25151D   25252.58049664  .00020311  00000+0  56763-3 0  9996
2 64819  51.8785  20.8392 0006333 350.6414   9.4454 15.36655119  8495
KUIPER-00073            
1 64820U 25151E   25252.91668981 -.00369484  00000+0 -27198-1 0  9991
2 64820  51.9144  23.5811 0011833  11.4536 115.5226 15.04766101  5864
KUIPER-00074            
1 64821U 25151F   25252.91668981 -.00718630  00000+0 -23277-1 0  9997
2 64821  51.8793  19.2429 0007513 349.6739  53.7700 15.33986764  5638
KUIPER-00075            
1 64822U 25151G   25252.62440743  .00031575  00000+0  85400-3 0  9992
2 64822  51.8788  20.4016 0005253 337.3891  22.6864 15.37421343  8507
KUIPER-00076            
1 64823U 25151H   25252.91668981 -.00649995  00000+0 -24046-1 0  9991
2 64823  51.8821  19.5334 0007354 342.5643 293.7595 15.29519431  5422
KUIPER-00077            
1 64824U 25151J   25252.91668981 -.00759170  00000+0 -39059-1 0  9999
2 64824  51.8962  20.9079 0004986 337.9167   5.3689 15.18536251  5752
KUIPER-00078            
1 64825U 25151K   25252.91668981 -.00786579  00000+0 -34713-1 0  9995
2 64825  51.8833  20.1117 0008263  20.4714 342.1537 15.23792048  4217
